GLOBALSTAR M075 [+]     
1 37192U 10054E   23306.93639934 -.00000080  00000+0  13205-3 0  9994
2 37192  51.9935 184.8142 0001082  75.1225 298.1080 12.62255364601211
GLOBALSTAR M073 [+]     
1 37193U 10054F   23306.69854068 -.00000116  00000+0 -66429-4 0  9993
2 37193  52.0045  98.8994 0000923 104.2692 269.1787 12.62269143603012
GLOBALSTAR M083 [+]     
1 37739U 11033A   23307.06288120 -.00000095  00000+0  48688-4 0  9991
2 37739  51.9877  47.3293 0000586  86.8400  84.3772 12.62262390572436
GLOBALSTAR M088 [+]     
1 37740U 11033B   23306.79926316 -.00000084  00000+0  11159-3 0  9998
2 37740  51.9742 314.1270 0000598  52.5414 119.4175 12.62267027567586
GLOBALSTAR M091 [+]     
1 37741U 11033C   23306.65405727 -.00000081  00000+0  12483-3 0  9990
2 37741  51.9997 277.0643 0000833  48.2538 122.7896 12.62267876568356
GLOBALSTAR M085 [+]     
1 37742U 11033D   23307.19634243 -.00000063  00000+0  22499-3 0  9996
2 37742  51.9864 226.9753 0000985  56.5182 120.5101 12.62264595569429
GLOBALSTAR M081 [+]     
1 37743U 11033E   23307.21613978 -.00000070  00000+0  18614-3 0  9994
2 37743  51.9956 229.3365 0001099  64.9939  82.0004 12.62266169569465
GLOBALSTAR M089 [+]     
1 37744U 11033F   23307.10204486 -.00000083  00000+0  11724-3 0  9992
2 37744  51.9918 184.0240 0000978  93.1055  75.1002 12.62269134570166
